FLOCK 1C-3              
1 40041U 14033AH  17110.70064098  .00000660  00000-0  76890-4 0  9990
2 40041  97.9282  23.1522 0013769 115.6653 244.6017 14.88536220153930
POLYITAN-1              
1 40042U 14033AJ  17110.82661855  .00000637  00000-0  75376-4 0  9990
2 40042  97.9230  21.9692 0016049 118.6189 241.6643 14.87994042153895
TIGRISAT                
1 40043U 14033AK  17110.74470252  .00000277  00000-0  48495-4 0  9993
2 40043  97.8653 357.0599 0061494 118.3809 242.3618 14.73947779152072
LEMUR-1                 
1 40044U 14033AL  17110.85484243  .00000235  00000-0  42503-4 0  9999
2 40044  97.8651 356.9293 0060645 119.0604 241.6698 14.73773372151972
AEROCUBE 6A             
1 40045U 14033AM  17110.73769400  .00000540  00000-0  85957-4 0  9997
2 40045  97.8760 358.0494 0059641 113.9778 246.7691 14.74758673152258
AEROCUBE 6B             
1 40046U 14033AN  17110.80565284  .00000594  00000-0  93954-4 0  9995
2 40046  97.8753 358.0538 0058892 113.3777 247.3642 14.74760887152028
UKUBE-1                 
1 40074U 14037F   17110.89294530  .00000466  00000-0  63904-4 0  9992
2 40074  98.3398 223.2604 0003582 223.5875 136.5075 14.83444025150688
BRITE-PL 2              
1 40119U 14049B   17110.77206606  .00000243  00000-0  35627-4 0  9993
2 40119  97.9363 196.9758 0016142 277.1286  82.8093 14.84109596144642
FIREBIRD 4              
1 40378U 15003C   17110.94665052  .00007242  00000-0  30996-3 0  9993
2 40378  99.1204 283.5461 0137390 191.4896 168.3187 15.14998863122338
GRIFEX                  
1 40379U 15003D   17110.77404311  .00004681  00000-0  21334-3 0  9994
2 40379  99.1213 281.3605 0142803 198.9217 160.6672 15.12645501122205
EXOCUBE                 
1 40380U 15003E   17110.90344594  .00004439  00000-0  20903-3 0  9999
2 40380  99.1246 280.3868 0146182 202.0271 157.4631 15.11230037122138
DEORBITSAIL             
1 40719U 15032E   17110.77085156  .00000727  00000-0  11290-3 0  9993
2 40719  97.9868   5.2286 0016093 333.2420  26.7957 14.75989311 95850
TIANWANG 1C (TW-1C)     
1 40926U 15051B   17110.91372949  .00008657  00000-0  20604-3 0  9998
2 40926  97.2362 150.9322 0012725  27.2291  96.7262 15.41775571 88094
TIANWANG 1B (TW-1B)     
1 40927U 15051C   17110.87819534  .00008207  00000-0  20256-3 0  9994
2 40927  97.2453 150.9387 0013022  35.8320  86.8164 15.40688977 88044
TIANWANG 1A (TW-1A)     
1 40928U 15051D   17110.89157497  .00004338  00000-0  12711-3 0  9998
2 40928  97.2331 147.7338 0014456  50.5675  74.2392 15.35636353 87902
LEMUR-2-JOEL            
1 40932U 15052C   17110.43688744  .00001203  00000-0  76595-4 0  9997
2 40932   6.0082 280.2350 0012551 165.8992 194.1568 14.77434995 84458
LEMUR-2-CHRIS           
1 40933U 15052D   17110.44486316  .00001638  00000-0  13526-3 0  9996
2 40933   6.0054 279.1720 0014004 168.1609 191.9176 14.77581655 84469
LEMUR-2-JEROEN          
1 40934U 15052E   17110.45728918  .00001215  00000-0  79883-4 0  9995
2 40934   6.0090 283.7962 0010375 153.5276 206.5289 14.76896758 84396
LEMUR-2-PETER           
1 40935U 15052F   17110.73840513  .00001407  00000-0  10734-3 0  9995
2 40935   6.0041 283.0652 0009718 155.3579 204.8008 14.76682636 84430
EXACTVIEW 9             
1 40936U 15052G   17104.16792048 -.00000020  00000-0 -92342-4 0  9993
2 40936   6.0026 331.8435 0009972  42.5566 317.5633 14.76219230 83453
ATHENOXAT 1             
1 41168U 15077C   17110.50666322  .00002751  00000-0  11929-3 0  9990
2 41168  14.9931 230.7456 0012764 299.6408  42.2821 15.11378463 74294
GALASSIA                
1 41170U 15077E   17110.58206953  .00002931  00000-0  12742-3 0  9995
2 41170  14.9885 226.9093 0013668 314.9969  44.9244 15.11907619 74341
VELOX 2                 
1 41171U 15077F   17110.73773353  .00002462  00000-0  10845-3 0  9997
2 41171  14.9912 236.3274 0009288 277.8313  82.0953 15.09731806 74274
AGGIESAT 4              
1 41313U 98067HP  17110.89354218  .00036685  00000-0  28732-3 0  9995
2 41313  51.6368 296.3596 0003557 272.9791  87.0800 15.71208906 69917
BEVO 2                  
1 41314U 98067HQ  17110.87785960  .00202518  26238-4  63450-3 0  9997
2 41314  51.6232 276.9722 0005776 283.2439  76.7922 15.91035461 69974
HORYU-IV                
1 41340U 16012D   17110.38218663  .00000829  00000-0  57358-4 0  9990
2 41340  31.0045 116.4824 0014299 221.4867 138.4683 15.00526535 64328
OUFTI-1                 
1 41458U 16025C   17110.92626493  .00002365  00000-0  13010-3 0  9991
2 41458  98.1890 145.2175 0176140 120.4862 241.3888 15.02859861 53980
E-ST@R-II               
1 41459U 16025D   17110.87492447  .00002160  00000-0  11879-3 0  9990
2 41459  98.1930 145.1290 0178082 120.9584 240.9284 15.02739948 53962
AAUSAT 4                
1 41460U 16025E   17110.83801478  .00004473  00000-0  24270-3 0  9994
2 41460  98.1837 145.1551 0169986 120.0373 241.7855 15.03517724 53971
DIWATA-1                
1 41463U 98067HT  17110.82819322  .00009199  00000-0  11214-3 0  9993
2 41463  51.6430 314.5670 0000415 167.6988 285.6969 15.61285921 55836
MINXSS                  
1 41474U 98067HU  17110.86469551  .00414528  81831-4  91807-3 0  9991
2 41474  51.6473 287.9043 0007287 286.0698  73.9509 15.97360508 53267
STMSAT-1                
1 41476U 98067HW  17110.92644424  .05491109  12138-4  11894-2 0  9990
2 41476  51.6168 282.7472 0011810 288.2314  71.7422 16.29591596 53242
NODES 2                 
1 41477U 98067HX  17110.92899346  .00080689  00000-0  51462-3 0  9995
2 41477  51.6312 299.5380 0003563 229.8786 130.1902 15.75675699 53024
NODES 1                 
1 41478U 98067HY  17110.70143972  .00083954  00000-0  54395-3 0  9995
2 41478  51.6334 301.0215 0003290 226.1881 133.8847 15.75299763 52984
FLOCK 2E'-1             
1 41479U 98067HZ  17110.78591984  .00037273  00000-0  35253-3 0  9999
2 41479  51.6363 308.4134 0001156  64.6416 295.4699 15.66603939 52856
FLOCK 2E'-3             
1 41480U 98067JA  17110.93794008  .00032288  00000-0  30500-3 0  9991
2 41480  51.6364 307.1988 0001404 119.7466 240.3670 15.66707465 52874
FLOCK 2E'-2             
1 41481U 98067JB  17110.91496151  .00032609  00000-0  29959-3 0  9991
2 41481  51.6353 306.2648 0001184  42.7208 317.3880 15.67391475 52879
FLOCK 2E'-4             
1 41482U 98067JC  17110.94344924  .00036620  00000-0  31782-3 0  9999
2 41482  51.6351 305.6940 0001609 177.0460 183.0546 15.68732338 52886
FLOCK 2E-1              
1 41483U 98067ID  17110.80342216  .00028397  00000-0  27606-3 0  9999
2 41483  51.6378 308.5761 0002451 162.4853 197.6228 15.66059085 52707
FLOCK 2E-2              
1 41484U 98067JE  17110.77782391  .00031453  00000-0  29016-3 0  9992
2 41484  51.6386 307.6708 0002148 171.5059 188.5974 15.67308474 52718
FLOCK 2E-3              
1 41486U 98067JG  17110.72413828  .00022590  00000-0  22792-3 0  9991
2 41486  51.6375 310.2895 0002643 203.6810 156.4065 15.65267372 52698
FLOCK 2E-4              
1 41487U 98067JH  17110.93025808  .00029496  00000-0  28441-3 0  9991
2 41487  51.6372 307.8947 0002797 209.9548 150.1288 15.66241915 52743
FLOCK 2E-6              
1 41563U 98067JM  17110.93813916  .00025058  00000-0  25466-3 0  9995
2 41563  51.6369 309.4443 0001309  52.9331 307.1784 15.65017978 50794
FLOCK 2E-5              
1 41564U 98067JN  17110.81700028  .00025557  00000-0  26080-3 0  9999
2 41564  51.6370 310.1425 0001292  58.5203 301.5918 15.64901580 50761
FLOCK 2E-7              
1 41565U 98067JP  17110.91860431  .00033805  00000-0  31141-3 0  9995
2 41565  51.6364 307.0500 0003047 250.2491 109.8177 15.67303848 50711
FLOCK 2E-8              
1 41566U 98067JQ  17110.74744105  .00109193  00000-0  51262-3 0  9996
2 41566  51.6333 296.7910 0005963 247.5357 112.5014 15.82323301 50822
FLOCK 2E'-5             
1 41567U 98067JR  17110.78077070  .00024573  00000-0  25851-3 0  9994
2 41567  51.6378 311.4080 0003116 273.9234  86.1404 15.64150152 50618
FLOCK 2E'-6             
1 41568U 98067JS  17110.75493412  .00027939  00000-0  27619-3 0  9997
2 41568  51.6364 309.7089 0002705 269.9731  90.0954 15.65648212 50662
FLOCK 2E'-8             
1 41569U 98067JT  17110.76955529  .00038528  00000-0  35140-3 0  9995
2 41569  51.6362 307.5589 0001540 192.3286 167.7673 15.67488584 50578
FLOCK 2E'-7             
1 41570U 98067JU  17110.93195316  .00042369  00000-0  35447-3 0  9994
2 41570  51.6367 304.9086 0002966 190.3976 169.6960 15.69553827 50648
FLOCK 2E-9              
1 41571U 98067JV  17110.78254413  .00037174  00000-0  33401-3 0  9998
2 41571  51.6369 306.9088 0002675 248.2757 111.7955 15.67873137 50562
FLOCK 2E-10             
1 41572U 98067JW  17110.77218963  .00035143  00000-0  33102-3 0  9990
2 41572  51.6369 308.3416 0003036 255.1818 104.8842 15.66732223 50546
FLOCK 2E-12             
1 41573U 98067JX  17110.79977109  .00035931  00000-0  32992-3 0  9998
2 41573  51.6364 307.7677 0002674 269.0954  90.9736 15.67354522 50557
FLOCK 2E-11             
1 41574U 98067JY  17110.80227137  .00034916  00000-0  31760-3 0  9994
2 41574  51.6351 306.9981 0003353 273.3299  86.7314 15.67598814 50568
FLOCK 2E'-9             
1 41575U 98067JZ  17110.76641009  .00039683  00000-0  35026-3 0  9993
2 41575  51.6347 306.7405 0002830 291.0813  68.9881 15.68279001 50556
FLOCK 2E'-10            
1 41576U 98067KA  17110.92030961  .00034355  00000-0  31439-3 0  9996
2 41576  51.6373 307.0914 0002886 294.4265  65.6430 15.67459827 50463
FLOCK 2E'-11            
1 41577U 98067KB  17110.93893982  .00032682  00000-0  30459-3 0  9990
2 41577  51.6375 307.2220 0003379 269.1004  90.9605 15.67031975 50281
FLOCK 2E'-12            
1 41578U 98067KC  17110.91424685  .00035199  00000-0  31589-3 0  9990
2 41578  51.6355 307.0050 0003943 252.3463 107.7103 15.67924976 50281
LEMUR-2-DRMUZZ          
1 41595U 16019B   17110.91715791  .00167782  00000-0  65827-3 0  9993
2 41595  51.6314 290.3901 0002378 228.8756 131.2043 15.85925784 47636
